STARLINK-30557          
1 58087U 23160N   26068.05549736 -.00000255  00000+0 -37766-5 0  9998
2 58087  43.0007  83.6006 0000969 276.5853  83.4879 15.02538542132827
KUIPER-00139            
1 65765U 25217D   26068.30974975  .00011274  00000+0  87196-3 0  9990
2 65765  51.8865  35.5400 0007119 318.9010  41.1425 15.01890214 24959
